NORAD_CAT_ID,OBJECT_NAME,OBJECT_TYPE,EPOCH,MEAN_MOTION,ECCENTRICITY,INCLINATION,RA_OF_ASC_NODE,ARG_OF_PERICENTER,MEAN_ANOMALY,BSTAR,MEAN_MOTION_DOT,MEAN_MOTION_DDOT,TLE_LINE0,TLE_LINE1,TLE_LINE2,SEMIMAJOR_AXIS,PERIOD,APOGEE,PERIGEE,DECAYED
49141.0,STARLINK-3093,PAYLOAD,2021-10-12 14:00:01,15.69730313,0.0003466,70.002,46.8874,282.2282,292.9945,0.00015074,0.00017807,0.0,0 STARLINK-3093,1 49141U 21082M   21285.58334491  .00017807  00000-0  15074-3 0  9990,2 49141  70.0020  46.8874 0003466 282.2282 292.9945 15.69730313  3676,6737.806,91.736,362.006,357.335,0.0
49141.0,STARLINK-3093,PAYLOAD,2021-10-12 22:00:01,15.69786581,0.0003493,70.0014,45.9503,284.2247,14.1914,-6.7157e-05,-8.234e-05,0.0,0 STARLINK-3093,1 49141U 21082M   21285.91668981 -.00008234  00000-0 -67157-4 0  9997,2 49141  70.0014  45.9503 0003493 284.2247  14.1914 15.69786581  5828,6737.645,91.732,361.86300000000006,357.156,0.0
49141.0,STARLINK-3093,PAYLOAD,2021-10-13 14:00:01,15.6977913,0.0003431,70.0013,44.0766,283.5642,181.1213,-0.00074357,-0.00088161,0.0,0 STARLINK-3093,1 49141U 21082M   21286.58334491 -.00088161  00000-0 -74357-3 0  9993,2 49141  70.0013  44.0766 0003431 283.5642 181.1213 15.69779130  3682,6737.666,91.733,361.843,357.219,0.0
49141.0,STARLINK-3093,PAYLOAD,2021-10-13 22:00:01,15.69750267,0.0003476,69.9996,43.132,278.4579,269.1075,-5.4107e-05,-6.667e-05,0.0,0 STARLINK-3093,1 49141U 21082M   21286.91668981 -.00006667  00000-0 -54107-4 0  9997,2 49141  69.9996  43.1320 0003476 278.4579 269.1075 15.69750267  5984,6737.749,91.734,361.956,357.271,0.0
49141.0,STARLINK-3093,PAYLOAD,2021-10-14 06:00:02,15.69671458,0.0003659,70.0014,42.2024,278.8087,352.12,0.00068317,0.00081882,0.0,0 STARLINK-3093,1 49141U 21082M   21287.25002315  .00081882  00000-0  68317-3 0  9995,2 49141  70.0014  42.2024 0003659 278.8087 352.1200 15.69671458  6034,6737.974,91.739,362.304,357.374,0.0
49141.0,STARLINK-3093,PAYLOAD,2021-10-14 14:00:01,15.69711318,0.0003744,70.0018,41.2655,283.0783,70.9149,8.3472e-05,9.749e-05,0.0,0 STARLINK-3093,1 49141U 21082M   21287.58335648  .00009749  00000-0  83472-4 0  9991,2 49141  70.0018  41.2655 0003744 283.0783  70.9149 15.69711318  3688,6737.86,91.737,362.24800000000016,357.202,0.0
49141.0,STARLINK-3093,PAYLOAD,2021-10-14 20:00:01,15.69724529,0.0003827,70.0015,40.5627,285.3208,40.9832,0.0001305,0.0001538,0.0,0 STARLINK-3093,1 49141U 21082M   21287.83335648  .00015380  00000-0  13050-3 0  9991,2 49141  70.0015  40.5627 0003827 285.3208  40.9832 15.69724529  6121,6737.821999999999,91.736,362.266,357.1090000000001,0.0
49141.0,STARLINK-3093,PAYLOAD,2021-10-14 22:00:00,15.69749347,0.000376,70.0011,40.3277,284.741,152.2665,-0.00030622,-0.00036612,0.0,0 STARLINK-3093,1 49141U 21082M   21287.91667824 -.00036612  00000-0 -30622-3 0  9991,2 49141  70.0011  40.3277 0003760 284.7410 152.2665 15.69749347  3730,6737.751,91.734,362.15,357.083,0.0
49141.0,STARLINK-3093,PAYLOAD,2021-10-15 06:00:02,15.69750582,0.0003576,70.0,39.3844,281.1453,238.9235,-5.434e-05,-6.695e-05,0.0,0 STARLINK-3093,1 49141U 21082M   21288.25002315 -.00006695  00000-0 -54340-4 0  9999,2 49141  70.0000  39.3844 0003576 281.1453 238.9235 15.69750582  6190,6737.748000000001,91.734,362.022,357.20300000000015,0.0
49141.0,STARLINK-3093,PAYLOAD,2021-10-15 14:00:01,15.69754366,0.0003784,70.0014,38.4548,284.4049,318.8634,0.00021671,0.00025744,0.0,0 STARLINK-3093,1 49141U 21082M   21288.58334491  .00025744  00000-0  21671-3 0  9992,2 49141  70.0014  38.4548 0003784 284.4049 318.8634 15.69754366  6245,6737.736999999999,91.734,362.151,357.052,0.0
49141.0,STARLINK-3093,PAYLOAD,2021-10-15 22:00:00,15.69798734,0.0003767,70.0013,37.5176,285.1544,41.2498,-0.00031094,-0.00037246,0.0,0 STARLINK-3093,1 49141U 21082M   21288.91667824 -.00037246  00000-0 -31094-3 0  9990,2 49141  70.0013  37.5176 0003767 285.1544  41.2498 15.69798734  3665,6737.61,91.732,362.013,356.93699999999984,0.0
49141.0,STARLINK-3093,PAYLOAD,2021-10-16 06:00:02,15.697781699999998,0.0003599,70.0017,36.5806,280.0812,129.5602,-0.00026736,-0.00032047,0.0,0 STARLINK-3093,1 49141U 21082M   21289.25002315 -.00032047  00000-0 -26736-3 0  9997,2 49141  70.0017  36.5806 0003599 280.0812 129.5602 15.69778170  3684,6737.669,91.733,361.959,357.1090000000001,0.0
49141.0,STARLINK-3093,PAYLOAD,2021-10-16 12:00:00,15.69753664,0.0003589,70.0021,35.8778,283.2397,98.7034,-0.00014883,-0.00017945,0.0,0 STARLINK-3093,1 49141U 21082M   21289.50001157 -.00017945  00000-0 -14883-3 0  9998,2 49141  70.0021  35.8778 0003589 283.2397  98.7034 15.69753664  6388,6737.739000000001,91.734,362.022,357.186,0.0
49141.0,STARLINK-3093,PAYLOAD,2021-10-16 16:00:00,15.69727195,0.0003624,70.0022,35.4093,286.9402,316.5714,0.00042271,0.0005051,0.0,0 STARLINK-3093,1 49141U 21082M   21289.66667824  .00050510  00000-0  42271-3 0  9999,2 49141  70.0022  35.4093 0003624 286.9402 316.5714 15.69727195  3699,6737.815,91.736,362.121,357.23800000000006,0.0
49141.0,STARLINK-3093,PAYLOAD,2021-10-17 06:00:00,15.69685094,0.000375,70.0022,33.77,280.0957,18.8867,0.00047641,0.00056899,0.0,0 STARLINK-3093,1 49141U 21082M   21290.25001157  .00056899  00000-0  47641-3 0  9999,2 49141  70.0022  33.7700 0003750 280.0957  18.8867 15.69685094  3675,6737.935,91.738,362.327,357.273,0.0
49141.0,STARLINK-3093,PAYLOAD,2021-10-17 14:00:01,15.69705499,0.0003847,70.002,32.8332,285.2211,96.8388,0.00013487,0.00015891,0.0,0 STARLINK-3093,1 49141U 21082M   21290.58334491  .00015891  00000-0  13487-3 0  9993,2 49141  70.0020  32.8332 0003847 285.2211  96.8388 15.69705499  6557,6737.877,91.737,362.334,357.15,0.0
49141.0,STARLINK-3093,PAYLOAD,2021-10-17 22:00:00,15.69746039,0.0003867,70.0018,31.8961,285.4476,179.6894,-0.00032807,-0.00039193,0.0,0 STARLINK-3093,1 49141U 21082M   21290.91667824 -.00039193  00000-0 -32807-3 0  9999,2 49141  70.0018  31.8961 0003867 285.4476 179.6894 15.69746039  3664,6737.761,91.735,362.231,357.02,0.0
49141.0,STARLINK-3093,PAYLOAD,2021-10-18 06:00:00,15.69738205,0.0003818,70.0022,30.9594,280.1248,268.1311,0.00048969,0.00058633,0.0,0 STARLINK-3093,1 49141U 21082M   21291.25001157  .00058633  00000-0  48969-3 0  9992,2 49141  70.0022  30.9594 0003818 280.1248 268.1311 15.69738205  6663,6737.783,91.735,362.221,357.076,0.0
49141.0,STARLINK-3093,PAYLOAD,2021-10-18 14:00:01,15.69761044,0.000392,70.0025,30.0224,285.9682,345.4392,0.00041794,0.00050007,0.0,0 STARLINK-3093,1 49141U 21082M   21291.58334491  .00050007  00000-0  41794-3 0  9994,2 49141  70.0025  30.0224 0003920 285.9682 345.4392 15.69761044  3679,6737.718000000003,91.734,362.224,356.94199999999995,0.0
49141.0,STARLINK-3093,PAYLOAD,2021-10-18 22:00:01,15.69839145,0.0003939,70.0024,29.0854,285.2105,69.4135,-0.00080333,-0.00095396,0.0,0 STARLINK-3093,1 49141U 21082M   21291.91668981 -.00095396  00000-0 -80333-3 0  9999,2 49141  70.0024  29.0854 0003939 285.2105  69.4135 15.69839145  6767,6737.494000000002,91.729,362.013,356.705,0.0
49141.0,STARLINK-3093,PAYLOAD,2021-10-19 14:00:01,15.69708186,0.0003981,70.0025,27.2121,286.7014,234.2006,9.6045e-05,0.0001125,0.0,0 STARLINK-3093,1 49141U 21082M   21292.58334491  .00011250  00000-0  96045-4 0  9992,2 49141  70.0025  27.2121 0003981 286.7014 234.2006 15.69708186  3695,6737.869000000002,91.737,362.416,357.052,0.0
49141.0,STARLINK-3093,PAYLOAD,2021-10-19 20:00:01,15.6973096,0.000394,70.0021,26.5093,287.1537,206.0471,-0.00018339,-0.00022034,0.0,0 STARLINK-3093,1 49141U 21082M   21292.83334491 -.00022034  00000-0 -18339-3 0  9993,2 49141  70.0021  26.5093 0003940 287.1537 206.0471 15.69730960  6917,6737.804,91.735,362.323,357.014,0.0
49141.0,STARLINK-3093,PAYLOAD,2021-10-19 22:00:00,15.6973697,0.0003914,70.0022,26.2751,285.7314,318.2415,-0.00031545,-0.00037686,0.0,0 STARLINK-3093,1 49141U 21082M   21292.91667824 -.00037686  00000-0 -31545-3 0  9994,2 49141  70.0022  26.2751 0003914 285.7314 318.2415 15.69736970  3675,6737.7869999999975,91.735,362.289,357.014,0.0
49141.0,STARLINK-3093,PAYLOAD,2021-10-20 14:00:01,15.69734737,0.0003971,70.0026,24.4015,286.5796,123.6043,0.00032787,0.00039091,0.0,0 STARLINK-3093,1 49141U 21082M   21293.58334491  .00039091  00000-0  32787-3 0  9998,2 49141  70.0026  24.4015 0003971 286.5796 123.6043 15.69734737  7025,6737.793000000002,91.735,362.334,356.982,0.0
49141.0,STARLINK-3093,PAYLOAD,2021-10-20 22:00:00,15.69787007,0.0003821,70.0024,23.4647,286.1174,207.1755,-0.00058259,-0.00069304,0.0,0 STARLINK-3093,1 49141U 21082M   21293.91667824 -.00069304  00000-0 -58259-3 0  9998,2 49141  70.0024  23.4647 0003821 286.1174 207.1755 15.69787007  3665,6737.643,91.732,362.083,356.934,0.0
49141.0,STARLINK-3093,PAYLOAD,2021-10-21 06:00:00,15.69744461,0.0003648,70.0028,22.5282,282.3887,294.0477,-0.00016709,-0.00020108,0.0,0 STARLINK-3093,1 49141U 21082M   21294.25001157 -.00020108  00000-0 -16709-3 0  9990,2 49141  70.0028  22.5282 0003648 282.3887 294.0477 15.69744461  7139,6737.765,91.735,362.088,357.172,0.0
49141.0,STARLINK-3093,PAYLOAD,2021-10-21 14:00:01,15.69701861,0.0003738,70.0025,21.5914,288.4743,11.0722,0.00027812,0.00033057,0.0,0 STARLINK-3093,1 49141U 21082M   21294.58334491  .00033057  00000-0  27812-3 0  9998,2 49141  70.0025  21.5914 0003738 288.4743  11.0722 15.69701861  3699,6737.887,91.737,362.271,357.233,0.0
49141.0,STARLINK-3093,PAYLOAD,2021-10-21 22:00:00,15.69741157,0.0003736,70.0021,20.6544,286.3426,96.2913,-0.00024012,-0.00028771,0.0,0 STARLINK-3093,1 49141U 21082M   21294.91667824 -.00028771  00000-0 -24012-3 0  9992,2 49141  70.0021  20.6544 0003736 286.3426  96.2913 15.69741157  3685,6737.775,91.735,362.157,357.122,0.0
49141.0,STARLINK-3093,PAYLOAD,2021-10-22 06:00:02,15.69745228,0.0003677,70.0024,19.7175,282.3353,183.4666,0.00018079,0.00021422,0.0,0 STARLINK-3093,1 49141U 21082M   21295.25002315  .00021422  00000-0  18079-3 0  9998,2 49141  70.0024  19.7175 0003677 282.3353 183.4666 15.69745228  7283,6737.763000000001,91.735,362.105,357.15,0.0
